BATSU-CS1 (IRAZU)       
1 43468U 98067NR  20002.80463385  .00086504  00000-0  33260-3 0  9996
2 43468  51.6344  31.6630 0003401  31.9502 328.1708 15.86615065194182
CUBERRT                 
1 43546U 98067NU  20003.14060089  .00009020  00000-0  82897-4 0  9994
2 43546  51.6372  51.3638 0003524 162.4842 197.6277 15.68557113 84109
TEMPEST-D               
1 43547U 98067NV  20002.67784789  .00000577  00000-0  13245-4 0  9991
2 43547  51.6402  72.3229 0005442 143.7131 216.4232 15.60150731 83463
RAINCUBE                
1 43548U 98067NW  20002.77832257  .00014276  00000-0  13812-3 0  9997
2 43548  51.6358  60.9261 0004055 160.7993 199.3156 15.66698300 84074
HALOSAT                 
1 43549U 98067NX  20002.86010867  .00014105  00000-0  13762-3 0  9998
2 43549  51.6372  60.7592 0003967 163.3365 196.7762 15.66499470 83642
ENDUROSAT ONE           
1 43551U 98067NZ  20002.86345007  .00019718  00000-0  16736-3 0  9997
2 43551  51.6357  55.5032 0003615 175.4663 184.6368 15.69649820 84125
EQUISAT                 
1 43552U 98067PA  20003.13821619  .00014251  00000-0  13679-3 0  9997
2 43552  51.6379  58.1556 0004478 172.2305 187.8761 15.66896970 84079
AEROCUBE 12A            
1 43556U 18046C   20002.89331115  .00000866  00000-0  42562-4 0  9990
2 43556  51.6411 185.5412 0008916  62.2669 297.9215 15.29266480 81887
AEROCUBE 12B            
1 43557U 18046D   20001.81654236  .00000155  00000-0  17994-4 0  9996
2 43557  51.6408 191.0960 0008950  58.8742 301.3115 15.29058105 81663
UITMSAT-1               
1 43589U 98067PD  20002.57871211  .00015938  00000-0  14708-3 0  9994
2 43589  51.6348  61.0559 0003678 181.7588 178.3396 15.67771716 79726
MAYA-1                  
1 43590U 98067PE  20003.40057665  .00016109  00000-0  14840-3 0  9996
2 43590  51.6353  56.8016 0003718 184.7178 175.3784 15.67805446 79789
BHUTAN-1                
1 43591U 98067PF  20003.19220612  .00017121  00000-0  15695-3 0  9991
2 43591  51.6360  57.7039 0003863 184.8162 175.2798 15.67872921 79751
SIRIUSSAT-1             
1 43595U 98067PG  20002.85748376  .00013542  00000-0  13210-3 0  9993
2 43595  51.6352  62.1811 0002426 130.9566 229.1640 15.66548490 78842
SIRIUSSAT-2             
1 43596U 98067PH  20003.41875555  .00014417  00000-0  14096-3 0  9992
2 43596  51.6363  59.9880 0002840 133.1809 226.9424 15.66426507 78928
TANUSHA-3               
1 43597U 98067PJ  20003.18235474  .00024984  00000-0  20668-3 0  9999
2 43597  51.6340  56.0431 0001752 146.9986 213.1121 15.70111933 78957
SURFSAT                 
1 43614U 18070B   20002.79493629  .00001957  00000-0  51809-4 0  9996
2 43614  93.0372  85.6330 0012884 259.8131 100.1670 15.38402650 72852
CP7 (DAVE)              
1 43615U 18070C   20003.26820733  .00001828  00000-0  48583-4 0  9992
2 43615  93.0376  85.8268 0013055 256.9375 103.0422 15.38295314 72920
ELFIN-B                 
1 43616U 18070D   20002.84940458  .00002747  00000-0  70566-4 0  9990
2 43616  93.0333  85.5616 0013602 261.8642  98.1069 15.39288685 72888
ELFIN-A                 
1 43617U 18070E   20003.48407310  .00002909  00000-0  74448-4 0  9990
2 43617  93.0390  86.1983 0012946 254.8278 105.1545 15.39408965 72987
CUBEBEL-1 (BSUSAT-1)    
1 43666U 18083E   20003.46747723  .00000920  00000-0  48661-4 0  9990
2 43666  97.5044  31.4540 0013953 213.2532 258.0256 15.17928566 65438
DEBRISSAT-2             
1 43680U 98067PR  20002.75228294  .00034863  00000-0  24717-3 0  9992
2 43680  51.6335  55.4560 0000666 178.1609 181.9393 15.73594530 87653
CICERO 10               
1 43690U 18088A   20003.47146805  .00000679  00000-0  29657-4 0  9992
2 43690  85.0378 187.6449 0014414 190.8034 169.2900 15.19952972 63526
IRVINE01                
1 43693U 18088D   20001.89280859  .00002039  00000-0  86885-4 0  9995
2 43693  85.0353 187.8438 0017828 181.4092 178.7103 15.22138580 63350
PROXIMA I               
1 43694U 18088E   20003.06072918  .00000870  00000-0  36458-4 0  9994
2 43694  85.0321 186.8646 0019618 168.8920 191.2759 15.21688700 63534
PROXIMA II              
1 43696U 18088G   20002.99352762  .00000868  00000-0  36370-4 0  9995
2 43696  85.0322 186.9111 0019652 169.0747 191.0926 15.21692367 63520
FACSAT-1                
1 43721U 18096C   20003.48535835  .00000807  00000-0  33391-4 0  9995
2 43721  97.4401  77.8489 0017452 354.2461   5.8575 15.26768707 61063
CENTAURI-2              
1 43722U 18096D   20001.92229927  .00001264  00000-0  50135-4 0  9998
2 43722  97.4407  76.4306 0017646   0.0250   0.0987 15.27140905 60822
INNOSAT-2               
1 43738U 18096V   20003.46150721  .00001690  00000-0  61344-4 0  9998
2 43738  97.4417  79.2821 0023779   2.2939 357.8406 15.29504550 61153
SIRION PATHFINDER-2     
1 43759U 18099B   20003.48220277  .00000502  00000-0  50872-4 0  9995
2 43759  97.7258  77.8135 0014728  23.4993 336.6897 14.95211147 59125
CORVUS-BC 4             
1 43767U 18099K   20002.89292315  .00000226  00000-0  26083-4 0  9990
2 43767  97.7242  76.8221 0012451  29.9324 330.2606 14.94652296 59022
MOVE-II                 
1 43780U 18099Y   20002.76761424  .00000231  00000-0  26221-4 0  9993
2 43780  97.7259  77.0113 0014310  36.7696 323.4503 14.95241389 59008
SPACEBEE-7              
1 43816U 18099BL  20002.87478770  .00000576  00000-0  57050-4 0  9990
2 43816  97.7270  77.4026 0013661  22.0172 338.1633 14.95555673 58597
SPACEBEE-5              
1 43817U 18099BM  20002.75210356  .00001206  00000-0  11257-3 0  9991
2 43817  97.7308  77.5019 0013304  23.3168 336.8653 14.95983705 58583
SPACEBEE-6              
1 43818U 18099BN  20002.18743504  .00000071  00000-0  11605-4 0  9992
2 43818  97.7280  76.7945 0013652  23.4184 336.7656 14.95690400 58643
SHIELDS 1               
1 43850U 18104B   20002.52400114  .00000041  00000-0  00000-0 0  9990
2 43850  85.0293 285.6835 0014054 332.1839  27.8673 15.21237473 58099
STF-1                   
1 43852U 18104D   20002.51519239  .00000041  00000-0  00000-0 0  9990
2 43852  85.0336 286.1037 0013807 348.4963  11.6008 15.20939939 58078
ZACUBE-2                
1 43907U 18111AH  20003.45492604  .00000477  00000-0  22199-4 0  9999
2 43907  97.2787 268.0787 0022052  14.3870 345.7990 15.24399072 56726
LUME 1                  
1 43908U 18111AJ  20003.48536115  .00000845  00000-0  36804-4 0  9996
2 43908  97.2787 268.1860 0021926  14.1977 345.9872 15.24698132 56736
AOBA VELOX-IV           
1 43940U 19003J   20003.42639475  .00001200  00000-0  51318-4 0  9993
2 43940  97.2522  60.2365 0025939  90.5979  30.2846 15.24421760 53359
CATSAT-2                
1 44029U 98067PV  20002.91853698  .00010154  00000-0  12764-3 0  9996
2 44029  51.6392  76.9640 0004196 172.5714 187.5342 15.60339979 52487
DELPHINI                
1 44030U 98067PW  20003.45909236  .00010079  00000-0  12455-3 0  9991
2 44030  51.6368  73.7750 0003829 169.2431 190.8645 15.60801615 52541
UNITE                   
1 44031U 98067PX  20002.79538720  .00005862  00000-0  82279-4 0  9990
2 44031  51.6380  79.8693 0003131 159.6035 200.5083 15.58321387 52408
TECHEDSAT 8             
1 44032U 98067PY  20002.72050476  .00046296  00000-0  34138-3 0  9997
2 44032  51.6342  66.5557 0000337 219.4534 140.6440 15.72537541 52557
CATSAT-1                
1 44033U 98067PZ  20003.17450692  .00010017  00000-0  12598-3 0  9990
2 44033  51.6394  75.6766 0004066 171.1126 188.9940 15.60344806 52436
RAAVANA-1               
1 44329U 98067QE  20002.62574734  .00006007  00000-0  95736-4 0  9991
2 44329  51.6402  88.5084 0006911  98.8436 261.3337 15.54752307 31020
UGUISU                  
1 44330U 98067QF  20002.50265313  .00006028  00000-0  96230-4 0  9993
2 44330  51.6404  89.1850 0006910  96.8540 263.3237 15.54698345 30981
NEPALISAT-1             
1 44331U 98067QG  20003.13555222  .00006265  00000-0  99403-4 0  9993
2 44331  51.6403  85.9138 0006947 101.6679 258.5092 15.54792651 31095
SPOOQY-1                
1 44332U 98067QH  20002.81154326  .00005866  00000-0  93608-4 0  9995
2 44332  51.6403  87.4968 0005803 102.7966 257.3674 15.54771727 31000
SPACEBEE-9              
1 44370U 19037F   20002.61769953  .00004667  00000-0  11874-3 0  9995
2 44370  45.0158 326.8469 0015000 287.9380  71.9850 15.40979301 28845
SPACEBEE-8              
1 44371U 19037G   20003.28451264  .00010516  00000-0  24014-3 0  9993
2 44371  45.0190 321.6940 0013144 296.0279  63.9255 15.43031047 28955
IOD-1 GEMS              
1 44385U 98067QK  20002.82651988  .00008950  00000-0  13591-3 0  9999
2 44385  51.6412  87.6231 0003299  66.1207 294.0130 15.55400330 28518
MOVE-IIB                
1 44398U 19038N   20003.12653756  .00000959  00000-0  59349-4 0  9996
2 44398  97.5150 326.7534 0025106 344.1254  15.9187 15.11951832 27448
SONATE                  
1 44400U 19038Q   20003.26403685  .00000491  00000-0  32433-4 0  9995
2 44400  97.5179 326.9074 0024848 342.1834  17.8630 15.11790604 27462
LUCKY-7                 
1 44406U 19038W   20002.84318520  .00000607  00000-0  38969-4 0  9996
2 44406  97.5170 326.5430 0024360 343.3425  16.7002 15.12008624 27397
BEESAT 9                
1 44412U 19038AC  20003.17755104  .00000798  00000-0  50036-4 0  9993
2 44412  97.5166 326.8573 0022630 348.4108  11.6598 15.12017621 27146
JAISAT-1                
1 44419U 19038F   20003.44934906  .00000688  00000-0  43103-4 0  9994
2 44419  97.5167 327.2638 0021443 347.2635  12.8051 15.12502155 27502
SWIATOWID               
1 44426U 98067QL  20003.48864550  .00009978  00000-0  14974-3 0  9996
2 44426  51.6442  84.3230 0003780  64.3156  36.9827 15.55572372 28633
KRAKSAT                 
1 44427U 98067QM  20002.66717195  .00004671  00000-0  79212-4 0  9990
2 44427  51.6419  89.5521 0004086  57.8229 302.3157 15.53604998 28539
VCC A                   
1 44428U 98067QN  20002.81561079  .00005816  00000-0  94607-4 0  9993
2 44428  51.6415  88.2962 0003332  76.4866 283.6495 15.54253804 28564
